#dP2021  5 16  0  0  0.00000000      96 __u+U ITR00 FIT  IAC
## 2158      0.00000000   900.00000000 59350 0.0000000000000
+  126   C01C02C03C04C05C06C07C08C09C10C11C12C13C14C16C19C20
+        C21C22C23C24C25C26C27C28C29C30C32C33C34C35C36C37C38
+        C39C40C41C42C43C44C45C46C60E01E02E03E04E05E07E08E09
+        E11E12E13E14E15E18E19E21E24E25E26E27E30E31E33E36G01
+        G02G03G04G05G06G07G08G09G10G12G13G14G15G16G17G18G19
+        G20G21G22G23G24G25G26G27G28G29G30G31G32J01J02J03J07
+        R01R02R03R04R05R06R07R08R09R10R11R12R13R14R15R16R17
+        R18R19R20R21R22R23R24  0  0  0  0  0  0  0  0  0  0
++        13 13 13 13 13  9  9  9  9  9  9  9  9  9  9  8  8
++         8  8  8  8  8  7  8  8  8  8  8  8  8  8  8  8  9
++         9  9  8  8  8  8  8  8 14  5  4  5  5  4  4  4  5
++         4  4  4  5  4  4  4  4  5  4  4  4  5  6  5  5  4
++         4  4  4  3  4  4  4  4  4  4  4  4  4  4  4  4  4
++         4  4  4  4  4  4  4  4  4  4  4  4  4  9  8  8 15
++         7  6  6  6  6 13  6  6  5 13  8  6  7  5  5  7  6
++         6  8  7  6  8 13  6  0  0  0  0  0  0  0  0  0  0
%c M  cc GPS ccc cccc cccc cccc cccc ccccc ccccc ccccc ccccc
%c cc cc ccc ccc cccc cccc cccc cccc ccccc ccccc ccccc ccccc
%f  0.0000000  0.000000000  0.00000000000  0.000000000000000
%f  0.0000000  0.000000000  0.00000000000  0.000000000000000
%i    0    0    0    0      0      0      0      0         0
%i    0    0    0    0      0      0      0      0         0
/* INFORMATION & ANALYSIS CENTER (IAC)            RAPID DATA
/* S/V CLOCKS ARE ALIGNED TO GNSS TIME                      
/* G:C1WC2W R:C1PC2P E:C1XC5X C:C2IC6I J:C1CC2S             
/* PCV:IGS14_2148 OL/AL:FES2004  NONE     YN ORB:CoN CLK:CoN
*  2021 05 16 14  0  0.00000000
PC01 -34348.042104  24422.352567   -226.129967   -461.810042
PC02   4336.070564  41951.256782   1374.873237    673.945813
PC03 -14870.949143  39461.268975    921.850577   -297.365578
PC04 -39617.173535  14418.053287   -211.757283    -19.983259
PC05  21856.222059  36059.352564   1056.021747   -135.381080
PC06 -13919.287445  37635.577584  14209.300627    391.353530
PC07 -13281.883428  22884.122988 -32576.750788   -228.236498
PC08 -25229.441176  26160.468485  21169.211635   -890.418566
PC09  -5218.827256  42065.676431   -867.096747    519.584915
PC10   3404.703409  29470.610899 -29614.524946    -42.028694
PC11  -2184.722986  27250.051112   5563.054864    344.218540
PC12 -12494.463198  21898.066470 -11917.138095    881.658243
PC13 -12278.818065  27508.541342  29497.530224    262.938711
PC14   6284.815910  21099.448776  17141.677612    746.341352
PC16 -11168.052318  39243.012883  11193.883710   -841.028205
PC19 -15079.575525 -21501.087657  -9439.457174    836.962211
PC20   1570.256090 -18010.273323 -21246.083143   -914.609632
PC21 -18180.887692   3477.624642  20914.731888   -940.796638
PC22 -23482.236741 -12698.589252   8197.477968   -956.089975
PC23  23571.851314   3035.358931 -14619.152983   -908.706819
PC24 -13545.892078  17462.058800 -17033.737338   -852.772266
PC25   8252.411287  14137.473862 -22606.012521   -916.175653
PC26 -25400.109885  11240.836441  -2508.783888    906.273470
PC27  15877.281243 -13534.461731  18501.790545    532.589253
PC28  14451.154046   7432.723767  22684.674483    -73.773897
PC29  -5474.160853 -23790.075609 -13526.650318    393.039031
PC30   7323.811118 -26614.080904   4002.663618    467.183289
PC32  18131.462996  -3624.126775 -20876.031180   -932.966084
PC33  15072.011542  21444.041938   9557.155290   -938.144904
PC34  -6968.173112  26834.973980  -3311.756113   -672.202007
PC35 -14675.047702  -7288.645306 -22593.193177   -278.214014
PC36  -7512.595779 -14496.718493  22655.235266   -726.777245
PC37  25955.736334 -10139.512210   1660.717765   -891.960064
PC38 -20095.166404  28362.439854  23823.083862    149.097357
PC39  -6866.137523  40708.753944   8949.356939     31.116857
PC40  -1163.765780  25284.750128 -33666.754691    161.514947
PC41  23469.732405  12872.704564  -7834.833180   -944.481121
PC42  -2409.897965  17637.721014  21533.992092   -915.175751
PC43   5066.476382  24150.901885  13045.921403   -732.826270
PC44 -15578.002602  13875.414801 -18563.572673    190.792094
PC45 -23605.102680  -2844.272609  14601.366208    441.650542
PC46  12611.138362 -17523.470117  17704.759892    268.374902
PC60   7238.780560  41535.575212   -280.631178      0.526075
PE01  19500.534095 -10496.358473  19639.389603  -1108.987188
PE02 -19375.976829  10570.223643 -19720.699141    219.460784
PE03 -10046.367204  16973.258195  22072.205994   -431.528776
PE04  -4413.226256 -27893.452792  -8862.693581   -772.132949
PE05 -18808.042996  -4069.253371  22501.190382   -280.530333
PE07  16505.361070  22519.746702  -9798.576772   -538.351092
PE08   4816.694982  27894.321341   8635.808870   6001.224673
PE09 -16646.316298 -22350.704417  10011.997306   5665.920771
PE11 -10674.167744 -12500.259103 -24624.742713   5973.236433
PE12   6677.132749 -24627.323038 -14985.354312   5207.859238
PE13  10291.830348  12823.955866  24615.034743    416.472458
PE14 -19695.989636   5477.051794 -24546.690456  -1432.987953
PE15  -6620.125953  24630.673144  15035.077626    813.977311
PE18  11585.850920 -14999.942801  15958.814157  -1568.589018
PE19  11351.179785 -14851.430829 -22939.600989    278.314289
PE21  29271.582880   1369.737911   4179.257240   -665.227750
PE24 -21774.958350 -13415.123706  14870.628942   -903.167304
PE25 -29290.687717  -1502.188928  -3988.490928   -533.999703
PE26  21458.724601  -7123.067879  19102.661975   1804.146659
PE27  22471.319597  12949.614392 -14271.630311    -33.616728
PE30   1329.602066  16837.047386 -24320.354134   2940.910315
PE31  -2502.697410 -16843.446469  24216.285537   -481.220840
PE33  19603.518468 -21910.020577   3381.301975   -468.663658
PE36 -21127.656592   6531.237877 -19681.544714   -207.868084
PG01  10906.318059 -20450.038248 -12905.056818    687.432233
PG02 -21342.325236  12798.311812  -8696.821015   -604.692730
PG03   2440.122585 -15033.901740 -21849.387239   -165.539149
PG04   1994.437812 -25102.972100  -8346.595769   -196.494271
PG05 -18193.472441   7521.961086  17764.008420    -42.108317
PG06 -19560.776020   1122.735581 -17903.785030     16.349497
PG07  -3005.474324 -16729.338277  20642.408004    152.457156
PG08   7475.077994 -19379.821847  16362.371756    -21.426289
PG09  -6858.989322 -25556.141962   2105.699921   -345.818982
PG10  23307.865921  11931.687298   5354.453075   -123.108983
PG12  -5666.197459  13944.564562 -22139.821581    -41.871065
PG13 -13119.142637  11317.496992  19960.092305    132.756248
PG14 -22479.779347 -13086.350782   5445.354525     85.012109
PG15  -5657.368913  20441.198409  15406.685502   -149.007328
PG16  21654.499358  -1652.012080  15351.427784   -326.097144
PG17 -12695.310499 -16936.800389 -15615.616072    443.304092
PG18   5764.972966  14435.048144  21518.815408    350.233732
PG19 -14716.144886  -8090.230338 -20892.261077      0.779880
PG20  -8184.626646  14044.417279  20915.349386    522.130383
PG21  16228.940968 -20161.492468  -3946.159609    118.527237
PG22  12772.355070 -11930.308278 -19755.183116   -612.862508
PG23  15423.201974  15735.746124  14845.087093    106.196622
PG24 -13570.731288  21367.068108  -7591.596914     81.113034
PG25   8496.979511  16952.992747 -18969.207774    138.260599
PG26  25698.868825   2614.327465   6696.738197     86.058840
PG27  13135.939458  -8216.336378  21342.161747   -131.045571
PG28 -23981.951966 -11173.335876    289.944736    570.404737
PG29   4442.755696  26070.146567   2112.527369   -348.030067
PG30 -15011.411986  -7387.068648  20731.544275   -426.807471
PG31  21456.514716  -3270.754581 -15699.638305   -117.616588
PG32  14909.678491  14060.856646 -16874.696451     21.103234
PJ01 -26205.978793  21336.079973  30244.449308   -379.790698
PJ02 -31773.316219  16516.175620 -17732.703804      0.060292
PJ03 -22261.876841  31354.146905 -12736.642066     -5.592135
PJ07 -25361.665500  33687.924905     20.259027      0.008447
PR01   2635.883438  17220.556874  18632.578996     79.556102
PR02  15666.060203  20167.201011    358.124976    478.842137
PR03  17424.591268   9744.476917 -15859.941113     36.056305
PR04   9134.688074  -5888.766714 -23044.156281     87.052536
PR05  -4080.356149 -18263.041126 -17307.699878     71.853635
PR06 -16595.092214 -19346.191407    686.678865    198.108300
PR07 -17244.978332  -9085.950287  16472.526611    -42.453918
PR08  -9189.196959   6075.693922  23066.465184    -59.006856
PR09 -13684.117814  -7775.598804  20112.798073     -6.843297
PR10 -24307.458040    344.720057   7603.030093    -70.648573
PR11 -21679.318692   8589.302645 -10344.905332     -4.550611
PR12  -5715.125787  11495.488569 -22014.032759    229.390364
PR13  12954.852126   7791.516691 -20561.603351    -54.809276
PR14  24639.534596   -679.610750  -6522.468619     64.334772
PR15  21491.824711  -8508.266868  10804.149427    103.816500
PR16   4445.456588 -11752.290084  22195.223089    -15.136593
PR17  11524.396578  -1020.507290  22740.670094    424.554451
PR18  13402.111613 -16932.809872  13539.953506     76.737490
PR19   9240.985480 -23681.808327  -2109.945143   -143.930407
PR20  -2143.276136 -16524.517124 -19292.264964    -49.193638
PR21 -11813.721630   2235.715370 -22497.894601   -209.362435
PR22 -13378.565256  17748.001908 -12628.366354   -112.975514
PR23  -5217.241269  23300.436551   8970.960165    385.372499
PR24   3186.469406  16118.366384  19520.205395     42.880560
EOF
